CCSDS_OMM_VERS = 2.0
CREATION_DATE  = 
ORIGINATOR     = 

OBJECT_NAME    = STARLINK-36626
OBJECT_ID      = 2026-018Q
CENTER_NAME    = EARTH
REF_FRAME      = TEME
TIME_SYSTEM    = UTC
MEAN_ELEMENT_THEORY = SGP/SGP4

EPOCH          = 2026-02-25T03:17:19.460256
MEAN_MOTION    = 15.75262456
ECCENTRICITY   = .00010481
INCLINATION    = 97.2851
RA_OF_ASC_NODE = 121.3566
ARG_OF_PERICENTER = 75.8967
MEAN_ANOMALY   = 284.2414

EPHEMERIS_TYPE = 0
CLASSIFICATION_TYPE = U
NORAD_CAT_ID   = 67603
ELEMENT_SET_NO = 999
REV_AT_EPOCH   = 533
BSTAR          = .10879008E-2
MEAN_MOTION_DOT = .165845E-2
MEAN_MOTION_DDOT = 0

CCSDS_OMM_VERS = 2.0
CREATION_DATE  = 
ORIGINATOR     = 

OBJECT_NAME    = STARLINK-36605
OBJECT_ID      = 2026-018R
CENTER_NAME    = EARTH
REF_FRAME      = TEME
TIME_SYSTEM    = UTC
MEAN_ELEMENT_THEORY = SGP/SGP4

EPOCH          = 2026-02-25T03:42:43.998624
MEAN_MOTION    = 15.75234987
ECCENTRICITY   = .00015345
INCLINATION    = 97.2850
RA_OF_ASC_NODE = 121.3302
ARG_OF_PERICENTER = 78.4149
MEAN_ANOMALY   = 281.7288

EPHEMERIS_TYPE = 0
CLASSIFICATION_TYPE = U
NORAD_CAT_ID   = 67604
ELEMENT_SET_NO = 999
REV_AT_EPOCH   = 533
BSTAR          = .73006419E-3
MEAN_MOTION_DOT = .110398E-2
MEAN_MOTION_DDOT = 0

CCSDS_OMM_VERS = 2.0
CREATION_DATE  = 
ORIGINATOR     = 

OBJECT_NAME    = STARLINK-36281
OBJECT_ID      = 2026-018S
CENTER_NAME    = EARTH
REF_FRAME      = TEME
TIME_SYSTEM    = UTC
MEAN_ELEMENT_THEORY = SGP/SGP4

EPOCH          = 2026-02-25T04:11:50.426016
MEAN_MOTION    = 15.80861122
ECCENTRICITY   = .00013763
INCLINATION    = 97.2860
RA_OF_ASC_NODE = 121.4555
ARG_OF_PERICENTER = 64.5083
MEAN_ANOMALY   = 295.6328

EPHEMERIS_TYPE = 0
CLASSIFICATION_TYPE = U
NORAD_CAT_ID   = 67605
ELEMENT_SET_NO = 999
REV_AT_EPOCH   = 534
BSTAR          = .39976157E-3
MEAN_MOTION_DOT = .77272E-3
MEAN_MOTION_DDOT = 0

CCSDS_OMM_VERS = 2.0
CREATION_DATE  = 
ORIGINATOR     = 

OBJECT_NAME    = STARLINK-35843
OBJECT_ID      = 2026-018T
CENTER_NAME    = EARTH
REF_FRAME      = TEME
TIME_SYSTEM    = UTC
MEAN_ELEMENT_THEORY = SGP/SGP4

EPOCH          = 2026-02-25T03:34:36.142752
MEAN_MOTION    = 15.75183370
ECCENTRICITY   = .00017838
INCLINATION    = 97.2847
RA_OF_ASC_NODE = 121.3386
ARG_OF_PERICENTER = 92.4088
MEAN_ANOMALY   = 267.7382

EPHEMERIS_TYPE = 0
CLASSIFICATION_TYPE = U
NORAD_CAT_ID   = 67606
ELEMENT_SET_NO = 999
REV_AT_EPOCH   = 533
BSTAR          = .16025142E-2
MEAN_MOTION_DOT = .245837E-2
MEAN_MOTION_DDOT = 0

CCSDS_OMM_VERS = 2.0
CREATION_DATE  = 
ORIGINATOR     = 

OBJECT_NAME    = STARLINK-36351
OBJECT_ID      = 2026-018U
CENTER_NAME    = EARTH
REF_FRAME      = TEME
TIME_SYSTEM    = UTC
MEAN_ELEMENT_THEORY = SGP/SGP4

EPOCH          = 2026-02-25T12:23:39.952896
MEAN_MOTION    = 15.75290638
ECCENTRICITY   = .0001052
INCLINATION    = 97.2851
RA_OF_ASC_NODE = 121.7584
ARG_OF_PERICENTER = 73.4115
MEAN_ANOMALY   = 286.7266

EPHEMERIS_TYPE = 0
CLASSIFICATION_TYPE = U
NORAD_CAT_ID   = 67607
ELEMENT_SET_NO = 999
REV_AT_EPOCH   = 539
BSTAR          = .20375E-2
MEAN_MOTION_DOT = .31671E-2
MEAN_MOTION_DDOT = 0

CCSDS_OMM_VERS = 2.0
CREATION_DATE  = 
ORIGINATOR     = 

OBJECT_NAME    = STARLINK-36411
OBJECT_ID      = 2026-018V
CENTER_NAME    = EARTH
REF_FRAME      = TEME
TIME_SYSTEM    = UTC
MEAN_ELEMENT_THEORY = SGP/SGP4

EPOCH          = 2026-02-25T12:00:01.999296
MEAN_MOTION    = 15.75180998
ECCENTRICITY   = .0001549
INCLINATION    = 97.2854
RA_OF_ASC_NODE = 121.7985
ARG_OF_PERICENTER = 83.1066
MEAN_ANOMALY   = 320.0280

EPHEMERIS_TYPE = 0
CLASSIFICATION_TYPE = U
NORAD_CAT_ID   = 67608
ELEMENT_SET_NO = 999
REV_AT_EPOCH   = 543
BSTAR          = -.25753E-3
MEAN_MOTION_DOT = -.38355E-3
MEAN_MOTION_DDOT = 0

CCSDS_OMM_VERS = 2.0
CREATION_DATE  = 
ORIGINATOR     = 

OBJECT_NAME    = STARLINK-36312
OBJECT_ID      = 2026-018W
CENTER_NAME    = EARTH
REF_FRAME      = TEME
TIME_SYSTEM    = UTC
MEAN_ELEMENT_THEORY = SGP/SGP4

EPOCH          = 2026-02-25T03:11:44.198016
MEAN_MOTION    = 15.75304008
ECCENTRICITY   = .00012616
INCLINATION    = 97.2863
RA_OF_ASC_NODE = 121.3617
ARG_OF_PERICENTER = 116.2091
MEAN_ANOMALY   = 243.9304

EPHEMERIS_TYPE = 0
CLASSIFICATION_TYPE = U
NORAD_CAT_ID   = 67609
ELEMENT_SET_NO = 999
REV_AT_EPOCH   = 533
BSTAR          = .15821795E-2
MEAN_MOTION_DOT = .243928E-2
MEAN_MOTION_DDOT = 0

CCSDS_OMM_VERS = 2.0
CREATION_DATE  = 
ORIGINATOR     = 

OBJECT_NAME    = STARLINK-36387
OBJECT_ID      = 2026-018X
CENTER_NAME    = EARTH
REF_FRAME      = TEME
TIME_SYSTEM    = UTC
MEAN_ELEMENT_THEORY = SGP/SGP4

EPOCH          = 2026-02-25T04:00:37.027872
MEAN_MOTION    = 15.80898388
ECCENTRICITY   = .00022882
INCLINATION    = 97.2861
RA_OF_ASC_NODE = 121.4667
ARG_OF_PERICENTER = 106.1955
MEAN_ANOMALY   = 253.9565

EPHEMERIS_TYPE = 0
CLASSIFICATION_TYPE = U
NORAD_CAT_ID   = 67610
ELEMENT_SET_NO = 999
REV_AT_EPOCH   = 534
BSTAR          = .32780285E-3
MEAN_MOTION_DOT = .6335E-3
MEAN_MOTION_DDOT = 0

CCSDS_OMM_VERS = 2.0
CREATION_DATE  = 
ORIGINATOR     = 

OBJECT_NAME    = STARLINK-36636
OBJECT_ID      = 2026-018Y
CENTER_NAME    = EARTH
REF_FRAME      = TEME
TIME_SYSTEM    = UTC
MEAN_ELEMENT_THEORY = SGP/SGP4

EPOCH          = 2026-02-25T04:19:19.877088
MEAN_MOTION    = 15.75173599
ECCENTRICITY   = .00022326
INCLINATION    = 97.2854
RA_OF_ASC_NODE = 121.4457
ARG_OF_PERICENTER = 108.3629
MEAN_ANOMALY   = 251.7879

EPHEMERIS_TYPE = 0
CLASSIFICATION_TYPE = U
NORAD_CAT_ID   = 67611
ELEMENT_SET_NO = 999
REV_AT_EPOCH   = 534
BSTAR          = .16399992E-2
MEAN_MOTION_DOT = .251662E-2
MEAN_MOTION_DDOT = 0

CCSDS_OMM_VERS = 2.0
CREATION_DATE  = 
ORIGINATOR     = 

OBJECT_NAME    = STARLINK-36407
OBJECT_ID      = 2026-018Z
CENTER_NAME    = EARTH
REF_FRAME      = TEME
TIME_SYSTEM    = UTC
MEAN_ELEMENT_THEORY = SGP/SGP4

EPOCH          = 2026-02-25T03:02:35.412000
MEAN_MOTION    = 15.75254925
ECCENTRICITY   = .00028016
INCLINATION    = 97.2852
RA_OF_ASC_NODE = 121.3711
ARG_OF_PERICENTER = 352.8295
MEAN_ANOMALY   = 7.2930

EPHEMERIS_TYPE = 0
CLASSIFICATION_TYPE = U
NORAD_CAT_ID   = 67612
ELEMENT_SET_NO = 999
REV_AT_EPOCH   = 538
BSTAR          = .12884973E-2
MEAN_MOTION_DOT = .19713E-2
MEAN_MOTION_DDOT = 0

CCSDS_OMM_VERS = 2.0
CREATION_DATE  = 
ORIGINATOR     = 

OBJECT_NAME    = STARLINK-36597
OBJECT_ID      = 2026-018AA
CENTER_NAME    = EARTH
REF_FRAME      = TEME
TIME_SYSTEM    = UTC
MEAN_ELEMENT_THEORY = SGP/SGP4

EPOCH          = 2026-02-25T12:00:01.999296
MEAN_MOTION    = 15.75186086
ECCENTRICITY   = .0000751
INCLINATION    = 97.2854
RA_OF_ASC_NODE = 121.8169
ARG_OF_PERICENTER = 78.8059
MEAN_ANOMALY   = 8.3166

EPHEMERIS_TYPE = 0
CLASSIFICATION_TYPE = U
NORAD_CAT_ID   = 67613
ELEMENT_SET_NO = 999
REV_AT_EPOCH   = 539
BSTAR          = -.24673E-3
MEAN_MOTION_DOT = -.36764E-3
MEAN_MOTION_DDOT = 0

CCSDS_OMM_VERS = 2.0
CREATION_DATE  = 
ORIGINATOR     = 

OBJECT_NAME    = NEONSAT-1A
OBJECT_ID      = 2026-019A
CENTER_NAME    = EARTH
REF_FRAME      = TEME
TIME_SYSTEM    = UTC
MEAN_ELEMENT_THEORY = SGP/SGP4

EPOCH          = 2026-02-25T07:15:39.174336
MEAN_MOTION    = 15.07674495
ECCENTRICITY   = .0012783
INCLINATION    = 97.4095
RA_OF_ASC_NODE = 180.3245
ARG_OF_PERICENTER = 212.0939
MEAN_ANOMALY   = 147.9512

EPHEMERIS_TYPE = 0
CLASSIFICATION_TYPE = U
NORAD_CAT_ID   = 67614
ELEMENT_SET_NO = 999
REV_AT_EPOCH   = 395
BSTAR          = .24965E-3
MEAN_MOTION_DOT = .3753E-4
MEAN_MOTION_DDOT = 0

CCSDS_OMM_VERS = 2.0
CREATION_DATE  = 
ORIGINATOR     = 

OBJECT_NAME    = ELECTRON KICK STAGE R/B
OBJECT_ID      = 2026-019C
CENTER_NAME    = EARTH
REF_FRAME      = TEME
TIME_SYSTEM    = UTC
MEAN_ELEMENT_THEORY = SGP/SGP4

EPOCH          = 2026-02-25T08:19:36.848928
MEAN_MOTION    = 15.74024757
ECCENTRICITY   = .0144645
INCLINATION    = 97.4007
RA_OF_ASC_NODE = 182.5497
ARG_OF_PERICENTER = 166.6051
MEAN_ANOMALY   = 193.9120

EPHEMERIS_TYPE = 0
CLASSIFICATION_TYPE = U
NORAD_CAT_ID   = 67616
ELEMENT_SET_NO = 999
REV_AT_EPOCH   = 410
BSTAR          = .20008E-2
MEAN_MOTION_DOT = .556736E-2
MEAN_MOTION_DDOT = .10095E-3

CCSDS_OMM_VERS = 2.0
CREATION_DATE  = 
ORIGINATOR     = 

OBJECT_NAME    = STARLINK-36548
OBJECT_ID      = 2026-020A
CENTER_NAME    = EARTH
REF_FRAME      = TEME
TIME_SYSTEM    = UTC
MEAN_ELEMENT_THEORY = SGP/SGP4

EPOCH          = 2026-02-24T18:08:59.690688
MEAN_MOTION    = 15.76457629
ECCENTRICITY   = .00008352
INCLINATION    = 42.9970
RA_OF_ASC_NODE = 220.8858
ARG_OF_PERICENTER = 148.5687
MEAN_ANOMALY   = 211.5232

EPHEMERIS_TYPE = 0
CLASSIFICATION_TYPE = U
NORAD_CAT_ID   = 67617
ELEMENT_SET_NO = 999
REV_AT_EPOCH   = 404
BSTAR          = .1728001E-2
MEAN_MOTION_DOT = .291995E-2
MEAN_MOTION_DDOT = 0

CCSDS_OMM_VERS = 2.0
CREATION_DATE  = 
ORIGINATOR     = 

OBJECT_NAME    = STARLINK-36601
OBJECT_ID      = 2026-020B
CENTER_NAME    = EARTH
REF_FRAME      = TEME
TIME_SYSTEM    = UTC
MEAN_ELEMENT_THEORY = SGP/SGP4

EPOCH          = 2026-02-25T12:00:01.999296
MEAN_MOTION    = 15.76382540
ECCENTRICITY   = .0001487
INCLINATION    = 42.9987
RA_OF_ASC_NODE = 215.7472
ARG_OF_PERICENTER = 262.0514
MEAN_ANOMALY   = 252.8504

EPHEMERIS_TYPE = 0
CLASSIFICATION_TYPE = U
NORAD_CAT_ID   = 67618
ELEMENT_SET_NO = 999
REV_AT_EPOCH   = 543
BSTAR          = -.21951E-3
MEAN_MOTION_DOT = -.36105E-3
MEAN_MOTION_DDOT = 0

